{
"type": "FeatureCollection",
"name": "yerevan_12_districts",
"crs": { "type": "name", "properties": { "name": "urn:ogc:def:crs:OGC:1.3:CRS84" } },
"features": [
{ "type": "Feature", "properties": { "district": "Ajapnyak" }, "geometry": { "type": "LineString", "coordinates": [ [ 44.439372420492958, 40.234048672655916 ], [ 44.437844039067841, 40.230113956441784 ], [ 44.43796651417864, 40.228768826135507 ], [ 44.435424099599601, 40.227709064858516 ], [ 44.432761629948573, 40.228674028359649 ], [ 44.43072847199582, 40.22780384879826 ], [ 44.426276040262536, 40.229555068924554 ], [ 44.423691288000782, 40.228902327138542 ], [ 44.422138265827158, 40.227358883897324 ], [ 44.416278132426385, 40.229401049124903 ], [ 44.412019305484193, 40.228641387148258 ], [ 44.411609751358156, 40.227089745393869 ], [ 44.41377696912167, 40.226018022592314 ], [ 44.411442187250827, 40.22426873406701 ], [ 44.405456816443007, 40.225044701663933 ], [ 44.402675010410377, 40.227218059110413 ], [ 44.403063201026015, 40.229052828729607 ], [ 44.400511753956721, 40.228190653315522 ], [ 44.396675781869192, 40.227040212574821 ], [ 44.397055430138124, 40.225682187752369 ], [ 44.400481489672558, 40.222480959087477 ], [ 44.398282607981599, 40.219863459833306 ], [ 44.396638851000858, 40.219288673537079 ], [ 44.396104710820936, 40.218248812707543 ], [ 44.39412700835706, 40.217669597696272 ], [ 44.400786042904627, 40.214548517795521 ], [ 44.40271507439121, 40.212830869589993 ], [ 44.402783659107513, 40.209667826649905 ], [ 44.403984263225595, 40.205865804476815 ], [ 44.404659004199942, 40.203442843393276 ], [ 44.406695513170519, 40.200497028985268 ], [ 44.409112774434107, 40.196795979361411 ], [ 44.410176074063088, 40.195749387130945 ], [ 44.413011510210936, 40.195996433473539 ], [ 44.41506312963412, 40.19442758406629 ], [ 44.416919354692737, 40.195548558441203 ], [ 44.418872770016321, 40.195922423401726 ], [ 44.420043909376858, 40.196818756614817 ], [ 44.423171260937806, 40.193310455356539 ], [ 44.423466639562776, 40.191068968257667 ], [ 44.424932363362615, 40.190546461502464 ], [ 44.426399738103441, 40.189574372386375 ], [ 44.429615996062893, 40.189656072329484 ], [ 44.437179631535827, 40.185264678327997 ], [ 44.440387452326121, 40.186444517864345 ], [ 44.444522023678559, 40.185973509418659 ], [ 44.44559925113964, 40.186198209237148 ], [ 44.445679220840702, 40.187392808713838 ], [ 44.448018804574588, 40.187392939391401 ], [ 44.448331168168465, 40.188466494781494 ], [ 44.449266747739813, 40.188228681023816 ], [ 44.449422565970167, 40.187215150245208 ], [ 44.45550368695109, 40.186322274321242 ], [ 44.461710416092984, 40.187408094026353 ], [ 44.462082824508173, 40.19050026279902 ], [ 44.47400013598957, 40.191445339344142 ], [ 44.477204856500975, 40.188347124685777 ], [ 44.4823547672232, 40.191593225777922 ], [ 44.480554875914322, 40.193988382547275 ], [ 44.481947680580532, 40.195185149446786 ], [ 44.483863776156625, 40.196249708836831 ], [ 44.484154137120129, 40.197402752000784 ], [ 44.482702226052709, 40.199131216163664 ], [ 44.483576989436585, 40.201345527456056 ], [ 44.485142184282097, 40.202454218834305 ], [ 44.487174961739015, 40.203563078715433 ], [ 44.488449987635903, 40.204848277413845 ], [ 44.490480213074449, 40.205690043486015 ], [ 44.4901938363912, 40.206620195221376 ], [ 44.489612235097695, 40.207684316592491 ], [ 44.49065922064014, 40.208571620136809 ], [ 44.493206088313457, 40.20923475200641 ], [ 44.491290760745471, 40.211716423805797 ], [ 44.490303755682618, 40.211849287009983 ], [ 44.487169290409412, 40.211361478560065 ], [ 44.482759619877925, 40.21091832908121 ], [ 44.481077216337212, 40.210165074043942 ], [ 44.480729404336074, 40.210918233482829 ], [ 44.478902692675973, 40.211272559364886 ], [ 44.478561353802945, 40.211756658923406 ], [ 44.475727106926996, 40.211966981689102 ], [ 44.474965160070099, 40.213324338194212 ], [ 44.468747419747899, 40.215940512346634 ], [ 44.465891178677822, 40.215456468601872 ], [ 44.465512953214329, 40.217296500688434 ], [ 44.463548747011629, 40.218409496636127 ], [ 44.458225947825213, 40.220554351355247 ], [ 44.455749390066586, 40.221669657132992 ], [ 44.452257037153373, 40.224045496857883 ], [ 44.44204788762201, 40.231748138565308 ], [ 44.439344228809659, 40.234061509887283 ] ] } },
{ "type": "Feature", "properties": { "district": "Davtashen" }, "geometry": { "type": "LineString", "coordinates": [ [ 44.451641110421036, 40.22513821408981 ], [ 44.452431681029196, 40.224534586096695 ], [ 44.453644008906139, 40.2255808615962 ], [ 44.453538648617922, 40.227351432651574 ], [ 44.454856496807338, 40.229685161727247 ], [ 44.456384912758352, 40.230369193380255 ], [ 44.457755278032835, 40.230127699512423 ], [ 44.460917486784552, 40.227995102083554 ], [ 44.460390427846107, 40.226586793218218 ], [ 44.459178225709451, 40.22550033731946 ], [ 44.458493040477521, 40.224655298034946 ], [ 44.459547091604719, 40.22340781679182 ], [ 44.461760690831909, 40.223327330311832 ], [ 44.46339454772226, 40.222965144826503 ], [ 44.464554066541126, 40.221838342732553 ], [ 44.465924402946285, 40.222039560497052 ], [ 44.467505557204134, 40.221355428921299 ], [ 44.469508341262838, 40.221798110388818 ], [ 44.472196327055684, 40.220228603837199 ], [ 44.473777543263679, 40.220148093655951 ], [ 44.474409888735948, 40.221194406662619 ], [ 44.473566590382234, 40.222361497558239 ], [ 44.478942424107174, 40.225540586822319 ], [ 44.481366801792149, 40.225299143011796 ], [ 44.482051905393519, 40.226103931125039 ], [ 44.480892520729981, 40.22775379224322 ], [ 44.481630415428299, 40.229524318742278 ], [ 44.485425179849187, 40.231898293062898 ], [ 44.488007709817225, 40.23302491913077 ], [ 44.489905083755787, 40.232984689371619 ], [ 44.490590254069559, 40.232139732829211 ], [ 44.490432171905468, 40.230731449607049 ], [ 44.490643009789039, 40.229564551570832 ], [ 44.493910926697225, 40.22827690953676 ], [ 44.497653221749687, 40.227270890756614 ], [ 44.49854786767898, 40.228397625770043 ], [ 44.500866883426085, 40.227512361303098 ], [ 44.501341179608403, 40.229041422987251 ], [ 44.502764117215918, 40.23032896900412 ], [ 44.509510697067867, 40.228115949757324 ], [ 44.509458023547523, 40.226948975724412 ], [ 44.510722701319082, 40.226063689023647 ], [ 44.512567575790939, 40.226304982267237 ], [ 44.513463756640022, 40.224373100671301 ], [ 44.513621918430886, 40.223648620178039 ], [ 44.512620365231157, 40.222521735226195 ], [ 44.51151338580371, 40.221958440239973 ], [ 44.509773941009939, 40.222441368716261 ], [ 44.508246580704622, 40.221814286642314 ], [ 44.506506703055067, 40.219802162793599 ], [ 44.504451317323856, 40.217185727506944 ], [ 44.503227007932111, 40.216398943551013 ], [ 44.501698357053272, 40.215593825962031 ], [ 44.500328249799338, 40.21438663442666 ], [ 44.498114577004884, 40.213259635717833 ], [ 44.497007737600541, 40.213501135641224 ], [ 44.495057531047536, 40.212857154976376 ], [ 44.494477685371066, 40.212172892881028 ], [ 44.49358195811422, 40.209556740944947 ], [ 44.491631889008175, 40.212092413782756 ], [ 44.488416933266564, 40.211770413704556 ], [ 44.484622295842541, 40.211367907718568 ], [ 44.483146561552616, 40.211166671786344 ], [ 44.481512755079592, 40.210643436672285 ], [ 44.480616878552041, 40.211287396195814 ], [ 44.478905708155622, 40.211850857268416 ], [ 44.476323342653444, 40.212293534020802 ], [ 44.475480161839954, 40.213541139529724 ], [ 44.469036615987989, 40.216235736605142 ], [ 44.466612228352744, 40.215873566949625 ], [ 44.465927145664267, 40.217362569862814 ], [ 44.461326733732648, 40.219492075539449 ], [ 44.45877257245229, 40.220517481810163 ], [ 44.455765790384817, 40.221824349660892 ], [ 44.452869318830437, 40.223854971226615 ], [ 44.451339992788235, 40.224918652419319 ], [ 44.451659180989367, 40.225131894007518 ] ] } },
{ "type": "Feature", "properties": { "district": "Arabkir" }, "geometry": { "type": "LineString", "coordinates": [ [ 44.512876091582115, 40.226615594688184 ], [ 44.514003805597895, 40.2238690421689 ], [ 44.513118670631684, 40.222392365323174 ], [ 44.511751332225913, 40.221585506335003 ], [ 44.509584932726028, 40.222014505410101 ], [ 44.507177918614161, 40.22005336429828 ], [ 44.504603572627786, 40.216754657223191 ], [ 44.498581010867099, 40.213072110860651 ], [ 44.496243314646051, 40.21307391646971 ], [ 44.494620810150082, 40.212155195242389 ], [ 44.493835290725855, 40.209514059852665 ], [ 44.490447911151989, 40.207855522448256 ], [ 44.490935703013037, 40.206444181067269 ], [ 44.491101976112247, 40.205463326192358 ], [ 44.488672814704103, 40.204230454121131 ], [ 44.484540987250739, 40.201440604850944 ], [ 44.483328313094603, 40.199482077711536 ], [ 44.484697323041928, 40.197644152527118 ], [ 44.484376173481223, 40.196296455644699 ], [ 44.481403525094663, 40.194211611833225 ], [ 44.482678214825455, 40.191917183861051 ], [ 44.483023612028234, 40.191224588619718 ], [ 44.485441392441771, 40.191158626799421 ], [ 44.48807504610653, 40.190927759922914 ], [ 44.490406477219011, 40.190136210379222 ], [ 44.493126480184799, 40.190004284557403 ], [ 44.494292195741849, 40.188981850735786 ], [ 44.496191880351915, 40.190037266036626 ], [ 44.497530294509573, 40.189311669781517 ], [ 44.5011137904782, 40.18904781467441 ], [ 44.503056649738852, 40.188849922669363 ], [ 44.504783635748311, 40.187167817316976 ], [ 44.503661094841902, 40.189278687950178 ], [ 44.504265539946374, 40.191917183862387 ], [ 44.504374141938627, 40.192744495995782 ], [ 44.504719140082983, 40.192972893831694 ], [ 44.505117346705987, 40.19391129152902 ], [ 44.504970539312097, 40.194901862898689 ], [ 44.505826915781114, 40.195313039216984 ], [ 44.505998191074269, 40.196023246986414 ], [ 44.505313089900028, 40.197200680320776 ], [ 44.507025842836413, 40.197761355674828 ], [ 44.510500284507771, 40.198471537800998 ], [ 44.513092141871027, 40.194845793207122 ], [ 44.513875114642332, 40.195462557260555 ], [ 44.514853830606, 40.194845793207122 ], [ 44.515000637999833, 40.195219590272586 ], [ 44.516444244047761, 40.195032691997397 ], [ 44.519970022088899, 40.199050891394393 ], [ 44.526013593161565, 40.205328234372359 ], [ 44.531427492914077, 40.211257704693907 ], [ 44.531574300308847, 40.219293926280784 ], [ 44.531598768209989, 40.223786253123876 ], [ 44.532671440902419, 40.225182224910782 ], [ 44.536439497363261, 40.227162439326804 ], [ 44.543600544307594, 40.230842771625163 ], [ 44.549454294008541, 40.233586864218921 ], [ 44.556329495288225, 40.235094746641096 ], [ 44.55982407273396, 40.236051654609156 ], [ 44.563622526478781, 40.237907437579423 ], [ 44.56236903674349, 40.238313383323998 ], [ 44.56122833164838, 40.238722521344471 ], [ 44.562482824684878, 40.240487540654186 ], [ 44.564167059204379, 40.241595348419565 ], [ 44.563601307442326, 40.242045976899902 ], [ 44.561633475228518, 40.240412434387025 ], [ 44.557869996119109, 40.2381028759944 ], [ 44.555238020533693, 40.237933880823903 ], [ 44.553909733788743, 40.237295450817214 ], [ 44.552384663822608, 40.23701378860639 ], [ 44.551007181271984, 40.237276673372833 ], [ 44.551005784112732, 40.238553527721251 ], [ 44.55211268973386, 40.239586259947657 ], [ 44.550464630253629, 40.240919400074745 ], [ 44.548816570775102, 40.240956952937864 ], [ 44.547048840532057, 40.241417325742475 ], [ 44.545567425033653, 40.240685622637244 ], [ 44.54203817046303, 40.240386287269843 ], [ 44.539423907816854, 40.23962131309537 ], [ 44.537550352922068, 40.238623507704148 ], [ 44.535502513849849, 40.237858513612736 ], [ 44.533783291952545, 40.236528068519959 ], [ 44.532999013158303, 40.235097810888647 ], [ 44.530384750513576, 40.233002262595534 ], [ 44.527857629956145, 40.231472138755379 ], [ 44.52554836462204, 40.229975245025088 ], [ 44.523892664947681, 40.228744440950749 ], [ 44.523021244066086, 40.227546880384381 ], [ 44.520494123508684, 40.227746475282231 ], [ 44.518141287128714, 40.228944032320214 ], [ 44.516137019100853, 40.22980892145722 ], [ 44.514699174645443, 40.229476273096282 ], [ 44.513192506274606, 40.227940409687363 ], [ 44.51287727813579, 40.226610229124191 ] ] } },
{ "type": "Feature", "properties": { "district": "Kanaker-Zeitun" }, "geometry": { "type": "LineString", "coordinates": [ [ 44.516807553991498, 40.194872855412655 ], [ 44.520562836611163, 40.199214247938642 ], [ 44.531877971245592, 40.211188870113716 ], [ 44.532047531890157, 40.223665514866696 ], [ 44.533062354908253, 40.225021450935742 ], [ 44.539303361138678, 40.228236627160527 ], [ 44.546508672080648, 40.231888410954554 ], [ 44.550567792300114, 40.233437788051418 ], [ 44.560565055721639, 40.236072660144288 ], [ 44.561305866506729, 40.236661090437366 ], [ 44.563680513008165, 40.237638022323267 ], [ 44.564348826693703, 40.237985372486122 ], [ 44.564775409897436, 40.237920244466665 ], [ 44.564988701499772, 40.237453491824851 ], [ 44.562372324516502, 40.236682800188106 ], [ 44.561177891545668, 40.236031504642369 ], [ 44.560154091856504, 40.235097970101947 ], [ 44.556734951381884, 40.231993918045958 ], [ 44.555682367783078, 40.231974318538789 ], [ 44.552858363006322, 40.229445934571203 ], [ 44.549717038555258, 40.226122178819878 ], [ 44.548868291022984, 40.22416673080761 ], [ 44.549270329327953, 40.222188478008292 ], [ 44.549315000251084, 40.220653586901079 ], [ 44.548287569027082, 40.219084551161615 ], [ 44.547170795956731, 40.217515479086188 ], [ 44.547930201643595, 40.216423929255654 ], [ 44.549270329327953, 40.216492151635094 ], [ 44.550030070544352, 40.214312822373671 ], [ 44.551772236535243, 40.210594482971516 ], [ 44.551772236535243, 40.208069989496835 ], [ 44.552889009605508, 40.206568894746795 ], [ 44.553603744370832, 40.205340701589705 ], [ 44.556015974202381, 40.20540893512657 ], [ 44.557981494807279, 40.206364197432947 ], [ 44.559768331719795, 40.207387677822538 ], [ 44.55529196128856, 40.202976347399215 ], [ 44.547423940614209, 40.196305400231012 ], [ 44.547296390585018, 40.196532730717564 ], [ 44.546190956993428, 40.19654896858043 ], [ 44.545862154078947, 40.195902649875023 ], [ 44.544694891643161, 40.195902649875023 ], [ 44.543466194343011, 40.195503773099574 ], [ 44.541746018122552, 40.195057966866813 ], [ 44.539810819874134, 40.195621090041925 ], [ 44.538612840006664, 40.195691480109588 ], [ 44.536646924326675, 40.196723859379631 ], [ 44.532006424730838, 40.19379092262804 ], [ 44.528842529182242, 40.194494839017466 ], [ 44.525371459308673, 40.194354056323959 ], [ 44.521470345380237, 40.193720530587569 ], [ 44.516806629569572, 40.194890486239416 ] ] } },
{ "type": "Feature", "properties": { "district": "Avan" }, "geometry": { "type": "LineString", "coordinates": [ [ 44.549590005415212, 40.216316447984553 ], [ 44.551246956474017, 40.21304486507006 ], [ 44.551933077784014, 40.210994508522617 ], [ 44.552047593825733, 40.209554547915133 ], [ 44.55210490808787, 40.208158063052309 ], [ 44.553819837322095, 40.20562648313728 ], [ 44.555821026557993, 40.20562605752491 ], [ 44.559249120526317, 40.207415964109856 ], [ 44.560736411683536, 40.20715386129595 ], [ 44.562962270390244, 40.20693609868502 ], [ 44.567357357300551, 40.209030940742849 ], [ 44.56924416227821, 40.209897605416927 ], [ 44.570872807098169, 40.21024841166701 ], [ 44.572835532904605, 40.208558146670129 ], [ 44.574756498588698, 40.211173255804312 ], [ 44.576861113695117, 40.210503542344327 ], [ 44.578949119873158, 40.210439759765052 ], [ 44.581997608893857, 40.211683509236025 ], [ 44.584043854947993, 40.212863455583403 ], [ 44.58575602001423, 40.214489834442077 ], [ 44.586591222485453, 40.215956730913263 ], [ 44.588011066687585, 40.216945273668159 ], [ 44.587468185080439, 40.217710587186957 ], [ 44.585505459271246, 40.217423595629725 ], [ 44.582540490498189, 40.217806250768632 ], [ 44.583333932845477, 40.218730991764801 ], [ 44.583960334698958, 40.219560059169737 ], [ 44.583292172721656, 40.220516662799923 ], [ 44.581371207037677, 40.220739868370714 ], [ 44.576527032704462, 40.220580435895499 ], [ 44.575817110603339, 40.223067539782676 ], [ 44.575023668257558, 40.225235709701906 ], [ 44.574355506280256, 40.226638606199288 ], [ 44.573269743067442, 40.227244393432358 ], [ 44.572392780472455, 40.226415420063688 ], [ 44.570847655901616, 40.225937161582436 ], [ 44.569970693306516, 40.226351652461403 ], [ 44.569135490835379, 40.225969045586453 ], [ 44.568091487746386, 40.227276276821073 ], [ 44.566462842926427, 40.22848783446301 ], [ 44.565460599961085, 40.229858781446694 ], [ 44.564082515884195, 40.23030513029056 ], [ 44.561702188840684, 40.230879003053616 ], [ 44.561117547111138, 40.23218613952821 ], [ 44.558778980191562, 40.23291940016307 ], [ 44.557066953031722, 40.231886404354867 ], [ 44.553842130583547, 40.229925204955236 ], [ 44.550344136920359, 40.226211261681129 ], [ 44.549415109735747, 40.224333370594508 ], [ 44.549796160093564, 40.220743899344086 ], [ 44.54769694105039, 40.217775280535477 ], [ 44.54784327775721, 40.216857092756555 ], [ 44.54851763614883, 40.216552806877985 ], [ 44.549406563118765, 40.216623026817189 ], [ 44.549600756787953, 40.216304372407052 ] ] } },
{ "type": "Feature", "properties": { "district": "Malatia-Sebastia" }, "geometry": { "type": "LineString", "coordinates": [ [ 44.410960857982445, 40.195148641553175 ], [ 44.406867143953065, 40.195884029541617 ], [ 44.403132559724355, 40.193860261579545 ], [ 44.405648391279044, 40.190275321779467 ], [ 44.408757028871548, 40.186044588152953 ], [ 44.407306639277039, 40.183373335692096 ], [ 44.408988342485173, 40.181899349117543 ], [ 44.40621576489653, 40.181162148703663 ], [ 44.405711313417299, 40.175721799636818 ], [ 44.410383744230842, 40.171376867966131 ], [ 44.41569602787925, 40.170452175249835 ], [ 44.419311903335029, 40.167214765275702 ], [ 44.423533880211096, 40.168485139395898 ], [ 44.424881133094146, 40.169514868276593 ], [ 44.429898955763406, 40.167913434840017 ], [ 44.430722507374355, 40.163851139375055 ], [ 44.429448877209325, 40.159729326877596 ], [ 44.432818203311911, 40.158009062688876 ], [ 44.436862116815604, 40.159100872882135 ], [ 44.436937280620782, 40.158584083045383 ], [ 44.433716979889823, 40.15806592687585 ], [ 44.431020836969708, 40.158238983201301 ], [ 44.428475382627425, 40.159900981059195 ], [ 44.423906340763466, 40.161788315928391 ], [ 44.417547254496696, 40.164485345851915 ], [ 44.416126393823504, 40.164999909214117 ], [ 44.40969289728838, 40.164543482923449 ], [ 44.402805507920277, 40.163915288259204 ], [ 44.403404034427894, 40.161226834389424 ], [ 44.4013816944273, 40.159167151848806 ], [ 44.400931703283902, 40.157049942102816 ], [ 44.398535410026454, 40.154303114495917 ], [ 44.39553947548012, 40.153959222585001 ], [ 44.393365748131714, 40.150753086034626 ], [ 44.392912553283992, 40.150186185239022 ], [ 44.38318506399736, 40.150188205097152 ], [ 44.380414212872807, 40.148470734276174 ], [ 44.367540032279493, 40.148470201615794 ], [ 44.366122857669609, 40.147727885491662 ], [ 44.362008877594633, 40.147500107666815 ], [ 44.362009128434494, 40.146756617517468 ], [ 44.36529994361274, 40.14652674761291 ], [ 44.367469201649499, 40.14521029197067 ], [ 44.395833561434017, 40.145498220159283 ], [ 44.398677159104238, 40.144411647435959 ], [ 44.41094564127161, 40.145329424489461 ], [ 44.412740696725734, 40.144929386727881 ], [ 44.413938620510777, 40.145615258450022 ], [ 44.416852216557885, 40.145559889697978 ], [ 44.423133190012265, 40.145675166256552 ], [ 44.426050560896869, 40.147104536437723 ], [ 44.425227344353459, 40.148133805457491 ], [ 44.421710623404294, 40.148705842321448 ], [ 44.421261947106814, 40.150478139039848 ], [ 44.419243628592938, 40.150420719580126 ], [ 44.419243780711497, 40.15179284350603 ], [ 44.414835108437529, 40.151791980551906 ], [ 44.414905142004471, 40.153851049357542 ], [ 44.413334789255856, 40.153679487551301 ], [ 44.41378603830924, 40.152306925409988 ], [ 44.412437236665653, 40.152307345929245 ], [ 44.412212574159213, 40.151564153257823 ], [ 44.409971137065924, 40.151735047034066 ], [ 44.409222395675357, 40.152707235984792 ], [ 44.405332283760572, 40.152478555188935 ], [ 44.404434450382212, 40.153622123401362 ], [ 44.402116818375816, 40.15442234672031 ], [ 44.401743080172395, 40.156137792863092 ], [ 44.401892390293426, 40.158710894772696 ], [ 44.403537147076918, 40.16048300035402 ], [ 44.403761093866819, 40.163226918724519 ], [ 44.408543881841496, 40.163739335195174 ], [ 44.414744028313436, 40.164137026780708 ], [ 44.415955556120082, 40.164376046849668 ], [ 44.418547281387475, 40.16345963595964 ], [ 44.422802322090376, 40.161567694466584 ], [ 44.427018625962887, 40.159734824979296 ], [ 44.430732194777988, 40.157961023636062 ], [ 44.433096294576075, 40.157497240576845 ], [ 44.435125446720235, 40.157746138681915 ], [ 44.438056444260951, 40.158837450374136 ], [ 44.440160750188682, 40.159679854421995 ], [ 44.441524771228842, 40.159934895531023 ], [ 44.4428892271047, 40.15968868277011 ], [ 44.443533553490852, 40.158834172730963 ], [ 44.443552504266734, 40.158153453647827 ], [ 44.44300293176147, 40.157603080038371 ], [ 44.443419848834765, 40.157197538735119 ], [ 44.444026273668641, 40.15721202239493 ], [ 44.444746403158263, 40.155908480649913 ], [ 44.445117077624047, 40.155163175123562 ], [ 44.447406462800444, 40.156356027624753 ], [ 44.449596679023529, 40.15613294003407 ], [ 44.451204293176772, 40.155351245718151 ], [ 44.454490532129967, 40.15529559449979 ], [ 44.456316930188194, 40.152671081635816 ], [ 44.460115849117727, 40.150996051361403 ], [ 44.463840388942003, 40.149377623373624 ], [ 44.466102446421928, 40.148820695620003 ], [ 44.468292293563621, 40.149769965556771 ], [ 44.469532215689156, 40.150216944345516 ], [ 44.46953835692176, 40.152224818944774 ], [ 44.472238173182006, 40.154123149621398 ], [ 44.473183211891836, 40.156243815141181 ], [ 44.469087490198774, 40.158139065173458 ], [ 44.469452157136686, 40.160090896632397 ], [ 44.479813506588641, 40.164719227506822 ], [ 44.485345329778795, 40.167445307679884 ], [ 44.487549447797988, 40.169110379388002 ], [ 44.484553459225936, 40.172165007542304 ], [ 44.483637586878757, 40.174079906930331 ], [ 44.484240661299424, 40.175865624412751 ], [ 44.486265490098788, 40.17679676293497 ], [ 44.488594901455627, 40.175866063778784 ], [ 44.489190051555056, 40.1776492183036 ], [ 44.490804223444684, 40.179353390338008 ], [ 44.486123190569884, 40.181518806299749 ], [ 44.483195406939245, 40.181366882840081 ], [ 44.480158368317518, 40.183228028128326 ], [ 44.478831322391301, 40.187637166461002 ], [ 44.476606440351105, 40.188106939065108 ], [ 44.473864292018419, 40.190810315604097 ], [ 44.463122209573186, 40.189956956185227 ], [ 44.462438141415419, 40.189557896996376 ], [ 44.462189496705406, 40.187334730041243 ], [ 44.455796782405514, 40.186107627111852 ], [ 44.44959173196608, 40.186961002306646 ], [ 44.447543278712942, 40.187198325569341 ], [ 44.44611553267157, 40.186914088322681 ], [ 44.445989534169371, 40.18606131017907 ], [ 44.444085251819274, 40.185633126392133 ], [ 44.440302614500013, 40.186011279710669 ], [ 44.437137714594627, 40.184921898719779 ], [ 44.429751810190197, 40.189141283937744 ], [ 44.426212152726833, 40.189189751032927 ], [ 44.423544404509016, 40.190611651578877 ], [ 44.422711157700746, 40.191692336939155 ], [ 44.422711543487168, 40.19320692481142 ], [ 44.420231774452986, 40.196190290520605 ], [ 44.418743740887976, 40.195574988738827 ], [ 44.415519974280159, 40.19439114402465 ], [ 44.414093719976449, 40.194060001253291 ], [ 44.413102369880249, 40.195432758115004 ], [ 44.410931906147653, 40.195157128012909 ] ] } },
{ "type": "Feature", "properties": { "district": "Kentron (Center)" }, "geometry": { "type": "LineString", "coordinates": [ [ 44.477610118316591, 40.188176114617249 ], [ 44.479364751263091, 40.187739021241981 ], [ 44.480547221292397, 40.183455357109096 ], [ 44.483217314906199, 40.181735987268667 ], [ 44.486230706271442, 40.181765129493073 ], [ 44.491189451554277, 40.179404568732821 ], [ 44.489396674414365, 40.177510232182357 ], [ 44.488977088274765, 40.175819856456599 ], [ 44.488366781162767, 40.175644987598645 ], [ 44.48642142724384, 40.176431893910205 ], [ 44.484590505907875, 40.175732422083939 ], [ 44.484094631380117, 40.174158584113513 ], [ 44.484781226881609, 40.172350199222109 ], [ 44.488061627607408, 40.169085739346173 ], [ 44.485505966577819, 40.167249411666006 ], [ 44.477953416068033, 40.163693207286883 ], [ 44.478487434791816, 40.163460007048343 ], [ 44.480051346765919, 40.163751507221207 ], [ 44.481767835517644, 40.163139355412341 ], [ 44.482874017157457, 40.163139355412341 ], [ 44.485124524632994, 40.165879420564039 ], [ 44.486574004022827, 40.166258357039311 ], [ 44.488671934719434, 40.165296437241011 ], [ 44.489472962803802, 40.163897256838283 ], [ 44.488862655691833, 40.16232314441433 ], [ 44.48756575307965, 40.161477772678467 ], [ 44.486553802856292, 40.160702924849318 ], [ 44.486897100606342, 40.160032442473977 ], [ 44.487736272884149, 40.15959516779256 ], [ 44.489185752275318, 40.159536864289009 ], [ 44.49146632203113, 40.15927449790459 ], [ 44.494403425006851, 40.158079260428252 ], [ 44.496425067315272, 40.158108412812368 ], [ 44.498255988649959, 40.158720609982993 ], [ 44.499018872539637, 40.160965285717168 ], [ 44.499362170289743, 40.16192726688621 ], [ 44.500659072903261, 40.16294753505008 ], [ 44.500811649680855, 40.164026087579259 ], [ 44.502070408099655, 40.164579932219539 ], [ 44.502961313258538, 40.163884035009715 ], [ 44.504594165387687, 40.163190792545294 ], [ 44.512849140041283, 40.163190792545294 ], [ 44.512849140041283, 40.162220241202078 ], [ 44.514890205202448, 40.16014044160201 ], [ 44.517354287416879, 40.159793802140285 ], [ 44.51975820860747, 40.160695061057254 ], [ 44.521118918714905, 40.162532205645675 ], [ 44.523069269868159, 40.165097192287362 ], [ 44.524747479001206, 40.167488781708357 ], [ 44.526754953265822, 40.16884051237102 ], [ 44.527888878355299, 40.170434826756065 ], [ 44.528433162397334, 40.17223705009593 ], [ 44.528705304420015, 40.174585441268164 ], [ 44.528705304420015, 40.176456865475046 ], [ 44.528705304420015, 40.177531178275387 ], [ 44.52961244449159, 40.178328238071458 ], [ 44.531063868606765, 40.179298559098925 ], [ 44.531789580664366, 40.180546094315503 ], [ 44.531698866656598, 40.181516383625564 ], [ 44.529476373483021, 40.183581819993179 ], [ 44.528841375433274, 40.185556948791515 ], [ 44.528070306371745, 40.186873669375018 ], [ 44.528932089439536, 40.188571508189142 ], [ 44.531063868608328, 40.189853521581057 ], [ 44.53201636568383, 40.190962270379259 ], [ 44.532469935717188, 40.191828467765731 ], [ 44.532424578714881, 40.192556065021193 ], [ 44.534420286868226, 40.193422242053032 ], [ 44.536370638021509, 40.194530932509593 ], [ 44.537731348128915, 40.195015978884214 ], [ 44.54099705238724, 40.194426993549229 ], [ 44.544081328631592, 40.194392347193485 ], [ 44.546394535814443, 40.194912040667248 ], [ 44.547029533864276, 40.195466375982988 ], [ 44.546938819858042, 40.196263225060221 ], [ 44.546303821806646, 40.19605535229104 ], [ 44.545714180760797, 40.195604959104173 ], [ 44.542176334480615, 40.194912040667248 ], [ 44.54027134033123, 40.195050624921294 ], [ 44.538819916216084, 40.195431730158873 ], [ 44.53691492206508, 40.19605535229104 ], [ 44.534238858854252, 40.194669517541911 ], [ 44.532243150695422, 40.19352618255337 ], [ 44.528977446437096, 40.194219115150503 ], [ 44.524849959111123, 40.194011236115131 ], [ 44.521402826838738, 40.193491535738019 ], [ 44.516716084134003, 40.194323054428679 ], [ 44.515160847415927, 40.194842748433473 ], [ 44.514525849364531, 40.19466951754103 ], [ 44.513936208318626, 40.195015978883333 ], [ 44.512892997235355, 40.194600225060299 ], [ 44.510398362038501, 40.198203340179248 ], [ 44.505681233666593, 40.197094709765423 ], [ 44.506406945722574, 40.195847478883138 ], [ 44.50618016070473, 40.195362438455504 ], [ 44.505454448648663, 40.194842748433473 ], [ 44.505409091644793, 40.193872649736136 ], [ 44.50500087861289, 40.192833242875082 ], [ 44.504093738539723, 40.189403087205221 ], [ 44.505227663630791, 40.186839019161312 ], [ 44.504139095543593, 40.187324120549391 ], [ 44.50291445644794, 40.188398261277797 ], [ 44.497460614427553, 40.189021948087998 ], [ 44.496281332334178, 40.189645629163692 ], [ 44.494603123201074, 40.188640806829426 ], [ 44.493287770097595, 40.189125895332296 ], [ 44.493015628075824, 40.189714926706841 ], [ 44.489976708835343, 40.18978422417922 ], [ 44.487844929666522, 40.190650436611861 ], [ 44.483127801294557, 40.190927622253753 ], [ 44.482540855595829, 40.191522927612738 ], [ 44.477313630687831, 40.188310411635825 ], [ 44.477624915566452, 40.188172235645197 ] ] } },
{ "type": "Feature", "properties": { "district": "Nork-Marash" }, "geometry": { "type": "LineString", "coordinates": [ [ 44.532561911115238, 40.191906860792386 ], [ 44.532521321202495, 40.192506309686166 ], [ 44.534320807321961, 40.193260780935503 ], [ 44.536269123120576, 40.194366634584611 ], [ 44.537689770056289, 40.194893717361253 ], [ 44.540582436768432, 40.19439123474578 ], [ 44.541950670800389, 40.194290092267096 ], [ 44.544223704756519, 40.194273235172545 ], [ 44.546474670421475, 40.19471151826599 ], [ 44.54649673871242, 40.194239520970768 ], [ 44.549829050628261, 40.194526091148958 ], [ 44.550358689608828, 40.194020378253128 ], [ 44.550733850552547, 40.193126942920259 ], [ 44.550513167644226, 40.1923177837823 ], [ 44.5510525780536, 40.190853982301945 ], [ 44.553211573648667, 40.19000706244455 ], [ 44.552416152665984, 40.186998182688541 ], [ 44.554225040867863, 40.186084348338966 ], [ 44.553378947999647, 40.185549415202559 ], [ 44.551540884181406, 40.184011458937505 ], [ 44.549790347212252, 40.182607207547875 ], [ 44.54836074201981, 40.181353899527636 ], [ 44.547018663676596, 40.179704393794111 ], [ 44.54614339519199, 40.179147119280884 ], [ 44.545764112182411, 40.178545257665292 ], [ 44.54631844888911, 40.17763130944806 ], [ 44.545822463414112, 40.174510417871772 ], [ 44.545968341494927, 40.173057794519309 ], [ 44.546989488060319, 40.172032305437028 ], [ 44.549090132423714, 40.171452674318687 ], [ 44.543167482345069, 40.165700681862745 ], [ 44.540775081820158, 40.166012817991628 ], [ 44.53634038816449, 40.1674397077322 ], [ 44.533585091835107, 40.163592275064332 ], [ 44.525086419336219, 40.164048044530034 ], [ 44.525533717888322, 40.165301394783654 ], [ 44.523943323036121, 40.165757152774802 ], [ 44.524987019658937, 40.167314302824451 ], [ 44.526825913706915, 40.168529614629534 ], [ 44.528267209043946, 40.170200632831722 ], [ 44.52901270663142, 40.17259315545266 ], [ 44.529161806148238, 40.174985593731748 ], [ 44.529211505987746, 40.177302001220198 ], [ 44.530951000359494, 40.178755290942405 ], [ 44.532094096659506, 40.180198228007555 ], [ 44.532143796498985, 40.181375338148626 ], [ 44.531944997142716, 40.182096782656487 ], [ 44.529957003576214, 40.183577618401273 ], [ 44.529211505988798, 40.185779827163771 ], [ 44.528664807757679, 40.186842936842027 ], [ 44.529062406470274, 40.188247734788774 ], [ 44.530553401645108, 40.189196906120316 ], [ 44.531674541968329, 40.190246060227508 ], [ 44.532515397212308, 40.191273787290186 ], [ 44.532563385704464, 40.191918510633627 ] ] } },
{ "type": "Feature", "properties": { "district": "Nor Nork" }, "geometry": { "type": "LineString", "coordinates": [ [ 44.547146866400993, 40.194597432093559 ], [ 44.547327735827878, 40.195761899671709 ], [ 44.549213945551031, 40.197261862336774 ], [ 44.551332701680195, 40.198959148494396 ], [ 44.553570743448262, 40.200685156625298 ], [ 44.556308657763282, 40.203525578176652 ], [ 44.558416328167169, 40.205599962122051 ], [ 44.559133370674346, 40.206446292538971 ], [ 44.560437084327134, 40.206910940039023 ], [ 44.562914140263587, 40.206744994868842 ], [ 44.564826253617639, 40.207700258027529 ], [ 44.566542809926489, 40.208480185803609 ], [ 44.568107266308232, 40.209226916753863 ], [ 44.56962826556807, 40.20989067069209 ], [ 44.570866793536283, 40.210122983034637 ], [ 44.572778906892751, 40.208430403447437 ], [ 44.573046268179326, 40.20845803296146 ], [ 44.574820922963369, 40.210991816999581 ], [ 44.576641873088903, 40.210473282858658 ], [ 44.578246778284893, 40.210331863768033 ], [ 44.579535916295754, 40.21024666691747 ], [ 44.583768249162034, 40.212434548820596 ], [ 44.586752654411214, 40.209261663841261 ], [ 44.581575248203535, 40.206637633318934 ], [ 44.578798275781708, 40.205810862931202 ], [ 44.581213121230633, 40.203199248808033 ], [ 44.582907227576868, 40.200710951911276 ], [ 44.588675703803801, 40.191014053714355 ], [ 44.588931721174561, 40.190176455968583 ], [ 44.589912886218372, 40.189948341248765 ], [ 44.595799876476718, 40.194412732763993 ], [ 44.598316934999445, 40.194803760358241 ], [ 44.600364583785506, 40.194771174811876 ], [ 44.603052122815456, 40.195227371041227 ], [ 44.603436056963886, 40.194282389731711 ], [ 44.601815001674737, 40.194152046448323 ], [ 44.600961814680915, 40.192229453922778 ], [ 44.599212781343283, 40.187927863094671 ], [ 44.598018319549567, 40.18768599153276 ], [ 44.597634385402614, 40.184981054011843 ], [ 44.59392302197881, 40.183970748476128 ], [ 44.594482091951846, 40.186202501787307 ], [ 44.590828050151288, 40.186978013707545 ], [ 44.589762261177412, 40.188761502422778 ], [ 44.590066772820677, 40.189498129394451 ], [ 44.588239694026697, 40.189808332697567 ], [ 44.585854320069245, 40.188916644251663 ], [ 44.583925678203315, 40.186396524032517 ], [ 44.581946269859372, 40.185737406317685 ], [ 44.581325135554039, 40.185073966447987 ], [ 44.576771020381443, 40.184002833830277 ], [ 44.577765901456928, 40.183344114943623 ], [ 44.581475858271972, 40.183089666959944 ], [ 44.582802127816421, 40.182481853283321 ], [ 44.582670203514255, 40.181316837946753 ], [ 44.581082466943286, 40.180506485910655 ], [ 44.580952282227088, 40.179087426038336 ], [ 44.581019111060954, 40.178327069813719 ], [ 44.584580532087841, 40.175882544582549 ], [ 44.582987129942524, 40.17384757672329 ], [ 44.576231424777319, 40.174678244667717 ], [ 44.574574431158965, 40.175639800621951 ], [ 44.575704474742423, 40.174171818675291 ], [ 44.572458804258815, 40.171993006997184 ], [ 44.567351662051919, 40.170062530620953 ], [ 44.560974432638005, 40.169958070883098 ], [ 44.557069921022105, 40.170571940663734 ], [ 44.556207981915207, 40.171634925363151 ], [ 44.553623007178885, 40.171129110689293 ], [ 44.551965027342732, 40.168596254424671 ], [ 44.550970633425806, 40.168292307423087 ], [ 44.549844203068005, 40.168292471023278 ], [ 44.550313157560083, 40.171684596954094 ], [ 44.548128222341063, 40.172139846114987 ], [ 44.546606798424335, 40.173201823522334 ], [ 44.546807441146939, 40.176134652650774 ], [ 44.546891694134473, 40.177906082336392 ], [ 44.546517611339169, 40.178763316171029 ], [ 44.548280491946144, 40.180640499648746 ], [ 44.551591066280963, 40.183462152588305 ], [ 44.554369614083896, 40.185543920531529 ], [ 44.555224410041461, 40.186441897532291 ], [ 44.553033354811475, 40.187095086025352 ], [ 44.553781217557201, 40.190197473302902 ], [ 44.551376232240017, 40.191095787929271 ], [ 44.550948508870817, 40.192932899615954 ], [ 44.550199479402153, 40.194811540421853 ], [ 44.547154504463208, 40.19461688447123 ] ] } },
{ "type": "Feature", "properties": { "district": "Shengavit" }, "geometry": { "type": "LineString", "coordinates": [ [ 44.483279752474488, 40.162461740535747 ], [ 44.47862024519074, 40.16301255708396 ], [ 44.472333269235946, 40.160761202849841 ], [ 44.47060970831248, 40.159756725861058 ], [ 44.470609659754956, 40.158285252717036 ], [ 44.47456377730532, 40.156345827142076 ], [ 44.473348927675346, 40.154032480756001 ], [ 44.47030495776329, 40.152166912468203 ], [ 44.470305105138351, 40.149917445749026 ], [ 44.466549559544376, 40.148447707702445 ], [ 44.46177688468012, 40.149380699326343 ], [ 44.455582192883242, 40.152330667764488 ], [ 44.454260299124087, 40.154737736396811 ], [ 44.451229582620471, 40.154960899575542 ], [ 44.447879927943092, 40.155737157075492 ], [ 44.443838357437727, 40.154227609622382 ], [ 44.442243684182728, 40.151996824687842 ], [ 44.440983203563775, 40.149764306199444 ], [ 44.437529900505467, 40.146872856149855 ], [ 44.435267347934996, 40.143642649020336 ], [ 44.433386338181492, 40.138700083756305 ], [ 44.434445196156275, 40.136901916771507 ], [ 44.429972101384692, 40.135286332472873 ], [ 44.427851880083921, 40.132858455071045 ], [ 44.423614417083201, 40.132408692626598 ], [ 44.425379328454966, 40.130339524580478 ], [ 44.427027131894533, 40.126651074191869 ], [ 44.432796347407361, 40.127373655290853 ], [ 44.433620477895545, 40.126655258865441 ], [ 44.433033377421339, 40.124318737498811 ], [ 44.431620747626255, 40.124316824925103 ], [ 44.430443253789889, 40.122966430043959 ], [ 44.432092036311928, 40.121261006622092 ], [ 44.430089946698303, 40.120807423844013 ], [ 44.427862642076889, 40.117610453619932 ], [ 44.430214614049191, 40.114643431746373 ], [ 44.435741261191851, 40.118411611310648 ], [ 44.445610010678365, 40.10889082903779 ], [ 44.453358053265248, 40.108621454777506 ], [ 44.449956327616292, 40.104846978007942 ], [ 44.451365375493367, 40.104218268036306 ], [ 44.454062177647216, 40.108082538933701 ], [ 44.45629244460801, 40.10745388640197 ], [ 44.459463315444538, 40.105298203000388 ], [ 44.462163062768951, 40.104579878474539 ], [ 44.467206609213576, 40.107095126238448 ], [ 44.473292423310909, 40.105750080493095 ], [ 44.48113843552261, 40.1057496969581 ], [ 44.492114422432508, 40.104415084932782 ], [ 44.489893863865973, 40.101280012999979 ], [ 44.488960146005212, 40.098323071033406 ], [ 44.488965230398492, 40.095363465945354 ], [ 44.490477360334012, 40.0934004564009 ], [ 44.489655778320611, 40.090536716585632 ], [ 44.491176707920999, 40.087940534399223 ], [ 44.492948617598529, 40.084430415331667 ], [ 44.502291385245854, 40.087637072606526 ], [ 44.504407092115883, 40.087185924915559 ], [ 44.506697154041348, 40.088724404596121 ], [ 44.50783603555243, 40.086824799737599 ], [ 44.516284727108399, 40.090729728886259 ], [ 44.519812658476042, 40.091808051556143 ], [ 44.516518527258171, 40.095945562418905 ], [ 44.525953564205992, 40.100081278201287 ], [ 44.526299263717135, 40.101961877353318 ], [ 44.525598391318567, 40.102857574810315 ], [ 44.51343698428056, 40.102054395300343 ], [ 44.51368843420309, 40.10538091323329 ], [ 44.508647075281118, 40.106197941381964 ], [ 44.503356337561968, 40.108104243443535 ], [ 44.508777813709173, 40.113332334859962 ], [ 44.509135381180641, 40.124162708295529 ], [ 44.506306120156239, 40.124891873742683 ], [ 44.509227546587965, 40.142539718409608 ], [ 44.508288151410142, 40.14945497575647 ], [ 44.50887373154373, 40.155594758515605 ], [ 44.50840366956578, 40.160260759735593 ], [ 44.508051412818901, 40.162773702898789 ], [ 44.504294283043407, 40.162783242710731 ], [ 44.502414425052251, 40.16360414036356 ], [ 44.501120432438142, 40.162719996225519 ], [ 44.499239168303944, 40.159211206853627 ], [ 44.497944088218787, 40.157868764724128 ], [ 44.49417431441114, 40.157610412819224 ], [ 44.489348579120218, 40.158959363982291 ], [ 44.485820967371097, 40.159674858319306 ], [ 44.485348146129041, 40.1606666682423 ], [ 44.488049265904465, 40.162834525863587 ], [ 44.488290860847087, 40.164623669782799 ], [ 44.486294135170567, 40.165786515187506 ], [ 44.48413121995867, 40.164110214497981 ], [ 44.483265568309406, 40.162432244636619 ] ] } },
{ "type": "Feature", "properties": { "district": "Erebuni" }, "geometry": { "type": "LineString", "coordinates": [ [ 44.508797435118765, 40.162436196998044 ], [ 44.512153274746908, 40.162435428500487 ], [ 44.51387502832452, 40.159938855363947 ], [ 44.516592586801977, 40.159106030802747 ], [ 44.5192079177952, 40.159586175021332 ], [ 44.52236230510951, 40.163246236318315 ], [ 44.523718581571842, 40.165181579274588 ], [ 44.52469965743407, 40.164966519351793 ], [ 44.52460411848628, 40.163720659974302 ], [ 44.52736419826212, 40.163427900313707 ], [ 44.528381182349477, 40.163776532201865 ], [ 44.530964230563541, 40.16361770638963 ], [ 44.533695729824359, 40.163436190721342 ], [ 44.534420133184256, 40.164696063366222 ], [ 44.534931479957663, 40.165406358603946 ], [ 44.535633361789365, 40.166390989425139 ], [ 44.536368092658478, 40.167314441371843 ], [ 44.537383181354784, 40.167026325712783 ], [ 44.540458696060767, 40.166000256553986 ], [ 44.542166094409197, 40.165655602670796 ], [ 44.543302537649311, 40.165570729619276 ], [ 44.543928171251224, 40.166314435150269 ], [ 44.546603064625543, 40.168789169076888 ], [ 44.549329412847442, 40.171335747151545 ], [ 44.549475296662024, 40.171651585372587 ], [ 44.549985890015591, 40.171521534518234 ], [ 44.549912948107476, 40.170592592598922 ], [ 44.549572552539502, 40.168233022962113 ], [ 44.550326285585186, 40.168084385907605 ], [ 44.551517670076265, 40.168251602570479 ], [ 44.552271403121892, 40.168586034661018 ], [ 44.552611798689725, 40.169199155879767 ], [ 44.553730241274309, 40.170871276509757 ], [ 44.555975889639711, 40.171195716688686 ], [ 44.556828679961654, 40.170414210240608 ], [ 44.559287060039054, 40.169996760056165 ], [ 44.561684739373391, 40.169764842177415 ], [ 44.56674316359701, 40.169788034000277 ], [ 44.567957178449944, 40.170019951799759 ], [ 44.572449033406485, 40.171759310036464 ], [ 44.575930615885369, 40.174055478092924 ], [ 44.575293258087385, 40.174959896158498 ], [ 44.576325170712181, 40.174542473933997 ], [ 44.582971902032909, 40.173684431296948 ], [ 44.583578909459391, 40.173777193185913 ], [ 44.582031040521684, 40.172177032826852 ], [ 44.578844251532672, 40.169997043510477 ], [ 44.578601448562466, 40.169115751358618 ], [ 44.577083929995268, 40.168257640111221 ], [ 44.5735634411202, 40.16634494375208 ], [ 44.574487012288586, 40.164884968051524 ], [ 44.568880400647458, 40.16196769557493 ], [ 44.568079115032845, 40.159941873293491 ], [ 44.566846572685023, 40.158717130312908 ], [ 44.568140050021583, 40.157726805130409 ], [ 44.567893145349473, 40.155935507755544 ], [ 44.563078553639173, 40.151688178890282 ], [ 44.567645541475088, 40.152774981287564 ], [ 44.571099984965485, 40.152776878396992 ], [ 44.579074575037026, 40.153755721666244 ], [ 44.581468844344272, 40.151755469978042 ], [ 44.589507682560139, 40.153903109877774 ], [ 44.597297763866038, 40.154877509208006 ], [ 44.60097548734052, 40.148574520857807 ], [ 44.614013262380297, 40.143105981715308 ], [ 44.619371670419611, 40.141953124137899 ], [ 44.618798790400149, 40.137198171718609 ], [ 44.608104959590662, 40.136860757534635 ], [ 44.604876655617829, 40.130123029811926 ], [ 44.606198258340839, 40.125828678550391 ], [ 44.598916289970731, 40.120850074174882 ], [ 44.589466680009991, 40.115633220650039 ], [ 44.585578423539829, 40.119369738498847 ], [ 44.5732066127579, 40.116522781178787 ], [ 44.568208635118992, 40.111038999258795 ], [ 44.555584245479082, 40.103207743730678 ], [ 44.552309738729093, 40.10203238099308 ], [ 44.541356056488326, 40.099816808699444 ], [ 44.527934536384549, 40.101926207707635 ], [ 44.526416338959791, 40.103592192352238 ], [ 44.514531232547, 40.10299528155619 ], [ 44.514379954813336, 40.106245055623901 ], [ 44.505064321492654, 40.108171744514976 ], [ 44.509113657753176, 40.112575568675993 ], [ 44.509957854230947, 40.116653599366998 ], [ 44.510169262995873, 40.124815934460685 ], [ 44.507387183180242, 40.125634055357352 ], [ 44.508883031689777, 40.13428718884461 ], [ 44.509964168126146, 40.143953980798642 ], [ 44.509109461708874, 40.147951009426407 ], [ 44.509111211844754, 40.152435583809279 ], [ 44.509754108751878, 40.157081172002137 ], [ 44.508771064861804, 40.162458615781446 ] ] } },
{ "type": "Feature", "properties": { "district": "Nubarashen" }, "geometry": { "type": "LineString", "coordinates": [ [ 44.506606540707594, 40.087229540060633 ], [ 44.507837927063036, 40.085814658975778 ], [ 44.507220075024804, 40.084021840671852 ], [ 44.504869827352621, 40.080811104114474 ], [ 44.506233955264037, 40.078926223493426 ], [ 44.503269862425498, 40.075809362796747 ], [ 44.505496353620401, 40.075436409136586 ], [ 44.504755619691139, 40.074020322423991 ], [ 44.504749347861946, 40.072598825366242 ], [ 44.509686925106848, 40.071753403181816 ], [ 44.511164312621702, 40.069953960196926 ], [ 44.514127218744193, 40.070338568700436 ], [ 44.516963965177382, 40.070060315368409 ], [ 44.52668541050204, 40.074703759723093 ], [ 44.528159975781421, 40.074140816030024 ], [ 44.526316544157766, 40.072161249987772 ], [ 44.527543319270364, 40.068683321253189 ], [ 44.530002836738248, 40.065389495391315 ], [ 44.534056308692726, 40.066619110040421 ], [ 44.540411784781611, 40.072943389576011 ], [ 44.543594534339377, 40.075576557520066 ], [ 44.54635715211657, 40.078741595572865 ], [ 44.552460713630666, 40.08054437513988 ], [ 44.555752280336378, 40.081832877581576 ], [ 44.557749805487305, 40.08303710443073 ], [ 44.55629207294416, 40.085821343383429 ], [ 44.557619507335659, 40.087072542636889 ], [ 44.564262141410609, 40.091558026085778 ], [ 44.567528160255733, 40.092297717911379 ], [ 44.571057104584099, 40.095602537039241 ], [ 44.574507811774225, 40.096726795813396 ], [ 44.577679241463017, 40.101897328757019 ], [ 44.592206917360301, 40.110132728640451 ], [ 44.602570507493681, 40.117456996536731 ], [ 44.615924575470785, 40.122345158633692 ], [ 44.620994077791465, 40.136555455993914 ], [ 44.615342896261211, 40.136050710397029 ], [ 44.609089098080602, 40.135689540052056 ], [ 44.606454830277102, 40.130511973921131 ], [ 44.607727940065644, 40.125570031054707 ], [ 44.602920030097778, 40.122518356669303 ], [ 44.58939278378341, 40.115123019683352 ], [ 44.585685519876591, 40.118802626854432 ], [ 44.573435674968096, 40.116196096083854 ], [ 44.569616622481902, 40.111915833867414 ], [ 44.563935742798378, 40.107874164625002 ], [ 44.557401412479663, 40.104135406758076 ], [ 44.555331634610326, 40.102788056260778 ], [ 44.552645327163333, 40.101878579590135 ], [ 44.547360787922457, 40.100733295378205 ], [ 44.541945630407156, 40.099243386048641 ], [ 44.53528983951162, 40.100059396573442 ], [ 44.528317239136072, 40.101327659118908 ], [ 44.526841610119533, 40.101251993358062 ], [ 44.526740969841256, 40.099602152357932 ], [ 44.517544359424051, 40.09613150451554 ], [ 44.520675828303979, 40.091310958316228 ], [ 44.5165067754711, 40.090615031363029 ], [ 44.512894727385628, 40.088979256903968 ], [ 44.508431564521374, 40.086914631078997 ], [ 44.507698871181844, 40.086754842598424 ], [ 44.507146818334263, 40.087489155318451 ], [ 44.506603465339651, 40.087224619239493 ] ] } }
]
}
